<?xml version="1.0" encoding="UTF-8"?>
<ndm xmlns:xsi="http://www.w3.org/2001/XMLSchema-instance" xsi:noNamespaceSchemaLocation="https://sanaregistry.org/r/ndmxml_unqualified/ndmxml-2.0.0-master-2.0.xsd">
<omm id="CCSDS_OMM_VERS" version="2.0">
<header><CREATION_DATE/><ORIGINATOR/></header><body><segment><metadata><OBJECT_NAME>KUIPER-00061</OBJECT_NAME><OBJECT_ID>2025-134X</OBJECT_ID><CENTER_NAME>EARTH</CENTER_NAME><REF_FRAME>TEME</REF_FRAME><TIME_SYSTEM>UTC</TIME_SYSTEM><MEAN_ELEMENT_THEORY>SGP4</MEAN_ELEMENT_THEORY></metadata><data><meanElements><EPOCH>2025-07-29T02:56:42.777312</EPOCH><MEAN_MOTION>15.35619544</MEAN_MOTION><ECCENTRICITY>.0004597</ECCENTRICITY><INCLINATION>51.8742</INCLINATION><RA_OF_ASC_NODE>159.0311</RA_OF_ASC_NODE><ARG_OF_PERICENTER>232.4479</ARG_OF_PERICENTER><MEAN_ANOMALY>127.6090</MEAN_ANOMALY></meanElements><tleParameters><EPHEMERIS_TYPE>0</EPHEMERIS_TYPE><CLASSIFICATION_TYPE>U</CLASSIFICATION_TYPE><NORAD_CAT_ID>64521</NORAD_CAT_ID><ELEMENT_SET_NO>999</ELEMENT_SET_NO><REV_AT_EPOCH>626</REV_AT_EPOCH><BSTAR>.88076E-3</BSTAR><MEAN_MOTION_DOT>.30719E-3</MEAN_MOTION_DOT><MEAN_MOTION_DDOT>0</MEAN_MOTION_DDOT></tleParameters></data></segment></body></omm>
<omm id="CCSDS_OMM_VERS" version="2.0">
<header><CREATION_DATE/><ORIGINATOR/></header><body><segment><metadata><OBJECT_NAME>KUIPER-00062</OBJECT_NAME><OBJECT_ID>2025-134Y</OBJECT_ID><CENTER_NAME>EARTH</CENTER_NAME><REF_FRAME>TEME</REF_FRAME><TIME_SYSTEM>UTC</TIME_SYSTEM><MEAN_ELEMENT_THEORY>SGP4</MEAN_ELEMENT_THEORY></metadata><data><meanElements><EPOCH>2025-07-28T22:00:01.999584</EPOCH><MEAN_MOTION>15.33181578</MEAN_MOTION><ECCENTRICITY>.0004387</ECCENTRICITY><INCLINATION>51.8769</INCLINATION><RA_OF_ASC_NODE>159.9788</RA_OF_ASC_NODE><ARG_OF_PERICENTER>228.3272</ARG_OF_PERICENTER><MEAN_ANOMALY>100.7618</MEAN_ANOMALY></meanElements><tleParameters><EPHEMERIS_TYPE>0</EPHEMERIS_TYPE><CLASSIFICATION_TYPE>U</CLASSIFICATION_TYPE><NORAD_CAT_ID>64522</NORAD_CAT_ID><ELEMENT_SET_NO>999</ELEMENT_SET_NO><REV_AT_EPOCH>622</REV_AT_EPOCH><BSTAR>-.68164E-2</BSTAR><MEAN_MOTION_DOT>-.216014E-2</MEAN_MOTION_DOT><MEAN_MOTION_DDOT>0</MEAN_MOTION_DDOT></tleParameters></data></segment></body></omm>
<omm id="CCSDS_OMM_VERS" version="2.0">
<header><CREATION_DATE/><ORIGINATOR/></header><body><segment><metadata><OBJECT_NAME>KUIPER-00063</OBJECT_NAME><OBJECT_ID>2025-134Z</OBJECT_ID><CENTER_NAME>EARTH</CENTER_NAME><REF_FRAME>TEME</REF_FRAME><TIME_SYSTEM>UTC</TIME_SYSTEM><MEAN_ELEMENT_THEORY>SGP4</MEAN_ELEMENT_THEORY></metadata><data><meanElements><EPOCH>2025-07-28T13:59:33.590688</EPOCH><MEAN_MOTION>15.36282431</MEAN_MOTION><ECCENTRICITY>.0002625</ECCENTRICITY><INCLINATION>51.8752</INCLINATION><RA_OF_ASC_NODE>161.4213</RA_OF_ASC_NODE><ARG_OF_PERICENTER>186.1008</ARG_OF_PERICENTER><MEAN_ANOMALY>173.9947</MEAN_ANOMALY></meanElements><tleParameters><EPHEMERIS_TYPE>0</EPHEMERIS_TYPE><CLASSIFICATION_TYPE>U</CLASSIFICATION_TYPE><NORAD_CAT_ID>64523</NORAD_CAT_ID><ELEMENT_SET_NO>999</ELEMENT_SET_NO><REV_AT_EPOCH>618</REV_AT_EPOCH><BSTAR>.70551E-3</BSTAR><MEAN_MOTION_DOT>.2504E-3</MEAN_MOTION_DOT><MEAN_MOTION_DDOT>0</MEAN_MOTION_DDOT></tleParameters></data></segment></body></omm>
<omm id="CCSDS_OMM_VERS" version="2.0">
<header><CREATION_DATE/><ORIGINATOR/></header><body><segment><metadata><OBJECT_NAME>KUIPER-00064</OBJECT_NAME><OBJECT_ID>2025-134AA</OBJECT_ID><CENTER_NAME>EARTH</CENTER_NAME><REF_FRAME>TEME</REF_FRAME><TIME_SYSTEM>UTC</TIME_SYSTEM><MEAN_ELEMENT_THEORY>SGP4</MEAN_ELEMENT_THEORY></metadata><data><meanElements><EPOCH>2025-07-28T13:40:11.226432</EPOCH><MEAN_MOTION>15.37096944</MEAN_MOTION><ECCENTRICITY>.0001459</ECCENTRICITY><INCLINATION>51.8783</INCLINATION><RA_OF_ASC_NODE>161.3330</RA_OF_ASC_NODE><ARG_OF_PERICENTER>132.1962</ARG_OF_PERICENTER><MEAN_ANOMALY>227.9149</MEAN_ANOMALY></meanElements><tleParameters><EPHEMERIS_TYPE>0</EPHEMERIS_TYPE><CLASSIFICATION_TYPE>U</CLASSIFICATION_TYPE><NORAD_CAT_ID>64524</NORAD_CAT_ID><ELEMENT_SET_NO>999</ELEMENT_SET_NO><REV_AT_EPOCH>664</REV_AT_EPOCH><BSTAR>.75028E-3</BSTAR><MEAN_MOTION_DOT>.27377E-3</MEAN_MOTION_DOT><MEAN_MOTION_DDOT>0</MEAN_MOTION_DDOT></tleParameters></data></segment></body></omm>
<omm id="CCSDS_OMM_VERS" version="2.0">
<header><CREATION_DATE/><ORIGINATOR/></header><body><segment><metadata><OBJECT_NAME>KUIPER-00065</OBJECT_NAME><OBJECT_ID>2025-134AB</OBJECT_ID><CENTER_NAME>EARTH</CENTER_NAME><REF_FRAME>TEME</REF_FRAME><TIME_SYSTEM>UTC</TIME_SYSTEM><MEAN_ELEMENT_THEORY>SGP4</MEAN_ELEMENT_THEORY></metadata><data><meanElements><EPOCH>2025-07-29T06:00:02.000160</EPOCH><MEAN_MOTION>15.31814993</MEAN_MOTION><ECCENTRICITY>.0007089</ECCENTRICITY><INCLINATION>51.8717</INCLINATION><RA_OF_ASC_NODE>158.6210</RA_OF_ASC_NODE><ARG_OF_PERICENTER>234.9364</ARG_OF_PERICENTER><MEAN_ANOMALY>359.0348</MEAN_ANOMALY></meanElements><tleParameters><EPHEMERIS_TYPE>0</EPHEMERIS_TYPE><CLASSIFICATION_TYPE>U</CLASSIFICATION_TYPE><NORAD_CAT_ID>64525</NORAD_CAT_ID><ELEMENT_SET_NO>999</ELEMENT_SET_NO><REV_AT_EPOCH>651</REV_AT_EPOCH><BSTAR>-.35053E-1</BSTAR><MEAN_MOTION_DOT>-.1008854E-1</MEAN_MOTION_DOT><MEAN_MOTION_DDOT>0</MEAN_MOTION_DDOT></tleParameters></data></segment></body></omm>
<omm id="CCSDS_OMM_VERS" version="2.0">
<header><CREATION_DATE/><ORIGINATOR/></header><body><segment><metadata><OBJECT_NAME>KUIPER-00066</OBJECT_NAME><OBJECT_ID>2025-134AC</OBJECT_ID><CENTER_NAME>EARTH</CENTER_NAME><REF_FRAME>TEME</REF_FRAME><TIME_SYSTEM>UTC</TIME_SYSTEM><MEAN_ELEMENT_THEORY>SGP4</MEAN_ELEMENT_THEORY></metadata><data><meanElements><EPOCH>2025-07-29T03:51:11.942496</EPOCH><MEAN_MOTION>15.36823932</MEAN_MOTION><ECCENTRICITY>.0001251</ECCENTRICITY><INCLINATION>51.8763</INCLINATION><RA_OF_ASC_NODE>158.5437</RA_OF_ASC_NODE><ARG_OF_PERICENTER>171.2268</ARG_OF_PERICENTER><MEAN_ANOMALY>188.8741</MEAN_ANOMALY></meanElements><tleParameters><EPHEMERIS_TYPE>0</EPHEMERIS_TYPE><CLASSIFICATION_TYPE>U</CLASSIFICATION_TYPE><NORAD_CAT_ID>64526</NORAD_CAT_ID><ELEMENT_SET_NO>999</ELEMENT_SET_NO><REV_AT_EPOCH>627</REV_AT_EPOCH><BSTAR>.57142E-3</BSTAR><MEAN_MOTION_DOT>.20554E-3</MEAN_MOTION_DOT><MEAN_MOTION_DDOT>0</MEAN_MOTION_DDOT></tleParameters></data></segment></body></omm>
<omm id="CCSDS_OMM_VERS" version="2.0">
<header><CREATION_DATE/><ORIGINATOR/></header><body><segment><metadata><OBJECT_NAME>KUIPER-00069</OBJECT_NAME><OBJECT_ID>2025-151A</OBJECT_ID><CENTER_NAME>EARTH</CENTER_NAME><REF_FRAME>TEME</REF_FRAME><TIME_SYSTEM>UTC</TIME_SYSTEM><MEAN_ELEMENT_THEORY>SGP4</MEAN_ELEMENT_THEORY></metadata><data><meanElements><EPOCH>2025-07-29T05:12:47.732832</EPOCH><MEAN_MOTION>15.35635444</MEAN_MOTION><ECCENTRICITY>.0005214</ECCENTRICITY><INCLINATION>51.8777</INCLINATION><RA_OF_ASC_NODE>225.1581</RA_OF_ASC_NODE><ARG_OF_PERICENTER>181.0437</ARG_OF_PERICENTER><MEAN_ANOMALY>179.0539</MEAN_ANOMALY></meanElements><tleParameters><EPHEMERIS_TYPE>0</EPHEMERIS_TYPE><CLASSIFICATION_TYPE>U</CLASSIFICATION_TYPE><NORAD_CAT_ID>64816</NORAD_CAT_ID><ELEMENT_SET_NO>999</ELEMENT_SET_NO><REV_AT_EPOCH>316</REV_AT_EPOCH><BSTAR>.45806E-3</BSTAR><MEAN_MOTION_DOT>.15769E-3</MEAN_MOTION_DOT><MEAN_MOTION_DDOT>0</MEAN_MOTION_DDOT></tleParameters></data></segment></body></omm>
<omm id="CCSDS_OMM_VERS" version="2.0">
<header><CREATION_DATE/><ORIGINATOR/></header><body><segment><metadata><OBJECT_NAME>KUIPER-00070</OBJECT_NAME><OBJECT_ID>2025-151B</OBJECT_ID><CENTER_NAME>EARTH</CENTER_NAME><REF_FRAME>TEME</REF_FRAME><TIME_SYSTEM>UTC</TIME_SYSTEM><MEAN_ELEMENT_THEORY>SGP4</MEAN_ELEMENT_THEORY></metadata><data><meanElements><EPOCH>2025-07-29T03:47:51.281952</EPOCH><MEAN_MOTION>15.33918680</MEAN_MOTION><ECCENTRICITY>.0002851</ECCENTRICITY><INCLINATION>51.8782</INCLINATION><RA_OF_ASC_NODE>225.5105</RA_OF_ASC_NODE><ARG_OF_PERICENTER>198.9094</ARG_OF_PERICENTER><MEAN_ANOMALY>161.1786</MEAN_ANOMALY></meanElements><tleParameters><EPHEMERIS_TYPE>0</EPHEMERIS_TYPE><CLASSIFICATION_TYPE>U</CLASSIFICATION_TYPE><NORAD_CAT_ID>64817</NORAD_CAT_ID><ELEMENT_SET_NO>999</ELEMENT_SET_NO><REV_AT_EPOCH>315</REV_AT_EPOCH><BSTAR>-.94158E-2</BSTAR><MEAN_MOTION_DOT>-.301799E-2</MEAN_MOTION_DOT><MEAN_MOTION_DDOT>0</MEAN_MOTION_DDOT></tleParameters></data></segment></body></omm>

</ndm>
