KUIPER-00061            
1 64521U 25134X   25210.12271733  .00030719  00000+0  88076-3 0  9990
2 64521  51.8742 159.0311 0004597 232.4479 127.6090 15.35619544  6265
KUIPER-00062            
1 64522U 25134Y   25209.91668981 -.00216014  00000+0 -68164-2 0  9992
2 64522  51.8769 159.9788 0004387 228.3272 100.7618 15.33181578  6227
KUIPER-00063            
1 64523U 25134Z   25209.58302767  .00025040  00000+0  70551-3 0  9992
2 64523  51.8752 161.4213 0002625 186.1008 173.9947 15.36282431  6187
KUIPER-00064            
1 64524U 25134AA  25209.56957438  .00027377  00000+0  75028-3 0  9991
2 64524  51.8783 161.3330 0001459 132.1962 227.9149 15.37096944  6643
KUIPER-00065            
1 64525U 25134AB  25210.25002315 -.01008854  00000+0 -35053-1 0  9999
2 64525  51.8717 158.6210 0007089 234.9364 359.0348 15.31814993  6519
KUIPER-00066            
1 64526U 25134AC  25210.16055489  .00020554  00000+0  57142-3 0  9993
2 64526  51.8763 158.5437 0001251 171.2268 188.8741 15.36823932  6278
KUIPER-00069            
1 64816U 25151A   25210.21721913  .00015769  00000+0  45806-3 0  9998
2 64816  51.8777 225.1581 0005214 181.0437 179.0539 15.35635444  3166
KUIPER-00070            
1 64817U 25151B   25210.15823243 -.00301799  00000+0 -94158-2 0  9997
2 64817  51.8782 225.5105 0002851 198.9094 161.1786 15.33918680  3158
